IRIDIUM 106             
1 41917U 17003A   25121.81007040  .00000483  00000+0  16530-3 0  9996
2 41917  86.3945 260.3845 0002392 107.3857 252.7600 14.34216240434240
IRIDIUM 103             
1 41918U 17003B   25121.86715515  .00000036  00000+0  56914-5 0  9991
2 41918  86.3945 260.2615 0001581 100.9323 259.2051 14.34217529434288
IRIDIUM 109             
1 41919U 17003C   25121.87349876  .00000088  00000+0  24249-4 0  9998
2 41919  86.3946 260.3114 0001983  92.5554 267.5869 14.34217115434261
IRIDIUM 102             
1 41920U 17003D   25121.84178613  .00000057  00000+0  13225-4 0  9994
2 41920  86.3945 260.2570 0002303  91.6270 268.5189 14.34217804434327
IRIDIUM 105             
1 41921U 17003E   25121.88229163  .00000490  00000+0  16794-3 0  9990
2 41921  86.4003 228.6825 0001963  98.5327 261.6092 14.34215048436186
IRIDIUM 104             
1 41922U 17003F   25121.85446991  .00000111  00000+0  32641-4 0  9998
2 41922  86.3947 260.2882 0001780  86.7933 273.3466 14.34217901434315
IRIDIUM 114             
1 41923U 17003G   25121.86081155  .00000186  00000+0  59371-4 0  9998
2 41923  86.3947 260.2702 0001887 100.3966 259.7443 14.34217259434313
IRIDIUM 108             
1 41924U 17003H   25121.81933503  .00000033  00000+0  46573-5 0  9999
2 41924  86.3999 228.6134 0002329  99.1367 261.0092 14.34217717436148
